ONEWEB-0544
1 55144U 23004E   26040.38119655  .00000097  00000+0  21326-3 0  9990
2 55144  87.9212   0.8512 0001808  90.6841 269.4499 13.18684672152851
ONEWEB-0560
1 55145U 23004F   26040.45047392  .00000021  00000+0  21416-4 0  9995
2 55145  87.9215   0.8270 0001741  87.9093 272.2239 13.18688218152876
ONEWEB-0565
1 55146U 23004G   26040.44388157  .00000010  00000+0 -79414-5 0  9993
2 55146  87.9207   0.8688 0002184  94.0456 266.0926 13.18687618152861
ONEWEB-0567
1 55147U 23004H   26040.43728078  .00000067  00000+0  13728-3 0  9998
2 55147  87.9214   0.8416 0001942  92.9134 267.2220 13.18687816152860
ONEWEB-0569
1 55148U 23004J   26040.33446236 -.00000192  00000+0 -55934-3 0  9997
2 55148  87.9040 345.6245 0001623 111.7127 248.4175 13.13472004153391
ONEWEB-0570
1 55149U 23004K   26040.42738211  .00000100  00000+0  21996-3 0  9993
2 55149  87.9210   0.8425 0002347  83.2382 276.9017 13.18685502152856
ONEWEB-0571
1 55150U 23004L   26040.42077889  .00000045  00000+0  81361-4 0  9993
2 55150  87.9211   0.8424 0002446 112.3322 247.8070 13.18689048152862
ONEWEB-0572
1 55151U 23004M   26040.49095185  .00000100  00000+0  22427-3 0  9999
2 55151  87.9102  31.2353 0002171  82.9164 277.2214 13.17648096150662
ONEWEB-0573
1 55152U 23004N   26040.41418447  .00000016  00000+0  77321-5 0  9993
2 55152  87.9208   0.8463 0002518  96.1255 264.0164 13.18684907152850
ONEWEB-0588
1 55153U 23004P   26040.40757611 -.00000003  00000+0 -40195-4 0  9998
2 55153  87.9212   0.8476 0002305  85.9545 274.1850 13.18688580152857
ONEWEB-0598
1 55154U 23004Q   26040.51575823 -.00000151  00000+0 -46237-3 0  9990
2 55154  87.8818  46.4740 0001866 108.5344 251.5986 13.11419307149160
ONEWEB-0599
1 55155U 23004R   26040.45213879  .00000025  00000+0  30451-4 0  9994
2 55155  87.9100  31.2414 0001721  88.6155 271.5174 13.17648685150661
ONEWEB-0614
1 55156U 23004S   26040.51067183 -.00000339  00000+0 -99195-3 0  9996
2 55156  87.8817  46.4837 0002143  82.8575 277.2796 13.11418822149106
ONEWEB-0616
1 55157U 23004T   26040.49432056  .00000045  00000+0  82095-4 0  9993
2 55157  87.9114  31.2305 0000876  86.1077 274.0154 13.17647594150881
ONEWEB-0617
1 55158U 23004U   26040.49879574 -.00000513  00000+0 -14845-2 0  9992
2 55158  87.8823  46.4675 0002235  90.0124 270.1260 13.11417495149123
ONEWEB-0618
1 55159U 23004V   26040.49721060  .00004839  00000+0  28245-3 0  9992
2 55159  86.9044 229.4175 0014906  52.7639 307.4957 15.11610571162967
ONEWEB-0619
1 55160U 23004W   26040.45045022  .00000064  00000+0  13229-3 0  9999
2 55160  87.9112  31.2127 0001836  72.6020 287.5312 13.17650501150775
ONEWEB-0620
1 55161U 23004X   26040.49371824 -.00000399  00000+0 -11627-2 0  9998
2 55161  87.8816  46.4857 0002060  96.7228 263.4134 13.11416222149093
ONEWEB-0621
1 55162U 23004Y   26040.44455664  .00000151  00000+0  39065-3 0  9990
2 55162  87.8831  46.4724 0001986  83.4264 276.7090 13.11419168149060
ONEWEB-0622
1 55163U 23004Z   26040.44964123  .00000359  00000+0  97723-3 0  9991
2 55163  87.8820  46.4757 0002627  86.3585 273.7843 13.11417922149054
ONEWEB-0623
1 55164U 23004AA  26040.44538470  .00000073  00000+0  15528-3 0  9990
2 55164  87.9100  31.2581 0002436  72.9380 287.2018 13.17647785150768
ONEWEB-0624
1 55165U 23004AB  26040.46835945  .00000242  00000+0  63345-3 0  9998
2 55165  87.8953  15.9590 0002075  78.9163 281.2199 13.12923625151318
ONEWEB-0625
1 55166U 23004AC  26040.51120638  .00000065  00000+0  13408-3 0  9999
2 55166  87.9102  31.2388 0001662  85.1773 274.9549 13.17650463150768
ONEWEB-0626
1 55167U 23004AD  26040.50107170  .00000035  00000+0  56284-4 0  9992
2 55167  87.9102  31.2416 0002012 102.0365 258.0992 13.17650743150763
ONEWEB-0627
1 55168U 23004AE  26040.48926304  .00000077  00000+0  16454-3 0  9998
2 55168  87.9101  31.2437 0002319  79.3705 280.7687 13.17648771150761
ONEWEB-0628
1 55169U 23004AF  26040.47906632 -.00000102  00000+0 -31998-3 0  9991
2 55169  87.8959  15.9991 0002298  67.2207 292.9164 13.12442445151283
ONEWEB-0629
1 55170U 23004AG  26040.46479592  .00000020  00000+0  18008-4 0  9997
2 55170  87.9100  31.2463 0001814  74.8848 285.2484 13.17648922150762
ONEWEB-0631
1 55171U 23004AH  26040.40099419  .00000063  00000+0  12679-3 0  9992
2 55171  87.9226   0.8020 0002272  93.8795 266.2597 13.18687832152832
ONEWEB-0709
1 55172U 23004AJ  26040.48355089 -.00000048  00000+0 -17015-3 0  9993
2 55172  87.8817  46.4914 0002061 113.9444 246.1900 13.11414872149136
ONEWEB-0710
1 55173U 23004AK  26040.47913683  .00000031  00000+0  46847-4 0  9999
2 55173  87.9099  31.2381 0002063  84.3269 275.8098 13.17648794150764
ONEWEB-0711
1 55174U 23004AL  26040.45473063  .00000520  00000+0  14305-2 0  9996
2 55174  87.8828  46.4760 0002524  79.8586 280.2827 13.11418692149096
ONEWEB-0713
1 55175U 23004AM  26040.47338049  .00000363  00000+0  98813-3 0  9995
2 55175  87.8827  46.4729 0002212  82.4683 277.6696 13.11416288149085
ONEWEB-0715
1 55176U 23004AN  26040.46829923  .00000542  00000+0  14940-2 0  9998
2 55176  87.8824  46.4740 0002361 105.3622 254.7767 13.11415490149123
ONEWEB-0716
1 55177U 23004AP  26040.47238880  .00000010  00000+0 -61892-5 0  9998
2 55177  87.9101  31.2392 0001656  85.6865 274.4456 13.17649912150763
ONEWEB-0717
1 55178U 23004AQ  26040.45551063  .00000068  00000+0  14101-3 0  9999
2 55178  87.9111  31.2193 0002566  81.3540 278.7882 13.17650876150815
ONEWEB-0719
1 55179U 23004AR  26040.46565885  .00000097  00000+0  21545-3 0  9990
2 55179  87.9110  31.1993 0001747  80.8977 279.2353 13.17649626150764
APSTAR-6E
1 55239U 23005A   26024.74283767 -.00000309  00000+0  00000+0 0  9993
2 55239   0.0530 247.0056 0001923 350.2708 288.1916  1.00219363 17253
YAOGAN-37
1 55244U 23006C   26040.50392105  .00007576  00000+0  40059-3 0  9993
2 55244  43.1963 109.3784 0019639 286.2547  73.6143 15.15715631170492
LINUSS1
1 55246U 22144G   26039.63939743  .00000021  00000+0  00000+0 0  9990
2 55246   5.0647  65.1187 0011161 291.3642  96.3885  0.99051787 10399
LINUSS2
1 55247U 22144H   26039.57108422  .00000058  00000+0  00000+0 0  9996
2 55247   5.0643  65.1119 0009009 288.8181  65.8966  0.99047359 10434
USA 342
1 55263U 23008A   26038.70030387  .00000143  00000+0  00000+0 0  9997
2 55263   0.0155 215.5608 0000333  27.5229 170.6672  1.00272044 11211
LDPE-3A
1 55264U 23008B   26040.23935911  .00000015  00000+0  00000+0 0  9994
2 55264   1.9858  82.8237 0000510 335.8629  39.7235  1.00565423 10542
NAVSTAR 82 (USA 343)
1 55268U 23009A   26040.31675286 -.00000001  00000+0  00000+0 0  9990
2 55268  55.1094 153.5450 0004255 339.0952  17.5843  2.00551031 22674
STARLINK-5277
1 55269U 23010A   26040.51542422  .00000845  00000+0  78630-4 0  9994
2 55269  70.0000 115.5790 0003138 274.1333  85.9467 14.98332832168841
STARLINK-5306
1 55271U 23010C   26040.51958664  .00000205  00000+0  24983-4 0  9998
2 55271  70.0002 115.5942 0003008 265.4867  94.5948 14.98331182168562
STARLINK-5310
1 55272U 23010D   26040.50289611 -.00002477  00000+0 -19989-3 0  9991
2 55272  69.9999 115.5395 0003314 268.6621  91.4158 14.98317133168569
STARLINK-5291
1 55273U 23010E   26040.47784995  .00001545  00000+0  13722-3 0  9995
2 55273  69.9997 115.4524 0003445 268.7819  91.2945 14.98327300168565
STARLINK-5236
1 55274U 23010F   26040.50684284 -.00000080  00000+0  10600-5 0  9998
2 55274  69.9995  95.6808 0002987 268.1550  91.9267 14.98316883169057
STARLINK-5260
1 55275U 23010G   26040.23160753  .00011600  00000+0  97769-3 0  9997
2 55275  70.0003  96.3251 0003223 269.8730  90.2060 14.98356502169014
STARLINK-5261
1 55276U 23010H   26040.49877053 -.00031729  00000+0 -26813-2 0  9991
2 55276  69.9991  95.6522 0003849 217.3372 142.7520 14.98068790169041
STARLINK-5299
1 55277U 23010J   26040.50706425 -.00000250  00000+0 -13186-4 0  9994
2 55277  70.0004 115.5501 0002899 262.6354  97.4476 14.98329065168563
STARLINK-5289
1 55278U 23010K   26040.49038426  .00002210  00000+0  19298-3 0  9997
2 55278  69.9997 115.4905 0003100 265.6682  94.4123 14.98324442168551
STARLINK-5331
1 55280U 23010M   26040.46117486  .00000104  00000+0  16486-4 0  9998
2 55280  70.0004 115.7819 0002916 265.4041  94.6785 14.98329735168549
STARLINK-5298
1 55281U 23010N   26040.49871537 -.00000450  00000+0 -29945-4 0  9996
2 55281  70.0000 115.5206 0003031 264.9539  95.1274 14.98334012168553
STARLINK-5330
1 55282U 23010P   26040.50002314  .00011008  00000+0  92878-3 0  9991
2 55282  70.0010 115.3637 0003254 268.3631 232.8850 14.98333646  5708
STARLINK-5317
1 55283U 23010Q   26040.49454110 -.00000096  00000+0 -21214-6 0  9991
2 55283  69.9999 115.5055 0003070 265.6531  94.4277 14.98330710168550
STARLINK-5337
1 55284U 23010R   26040.50002314  .00009518  00000+0  80447-3 0  9995
2 55284  70.0010 115.3623 0003202 272.6985 229.4838 14.98328261  5444
STARLINK-5332
1 55285U 23010S   26040.51509778 -.00004392  00000+0 -36041-3 0  9991
2 55285  69.9993  75.4177 0003193 270.2485  89.8308 14.98337814170425
STARLINK-5338
1 55286U 23010T   26040.49014182 -.00000022  00000+0  59810-5 0  9995
2 55286  69.9997  95.6226 0003064 265.9544  94.1265 14.98331603169040
STARLINK-5341
1 55287U 23010U   26040.49824999  .00001006  00000+0  92039-4 0  9992
2 55287  69.9989  75.6848 0003214 271.6538  88.4252 14.98339305169537
STARLINK-5311
1 55288U 23010V   26040.47778605 -.00000060  00000+0  27551-5 0  9991
2 55288  70.0000  95.5777 0002897 264.5782  95.5046 14.98329870169047
STARLINK-5320
1 55289U 23010W   26040.49430808  .00000607  00000+0  58677-4 0  9992
2 55289  69.9996  95.6361 0002912 266.2464  93.8362 14.98337561169041
STARLINK-5266
1 55290U 23010X   26040.48597662  .00001910  00000+0  16782-3 0  9993
2 55290  69.9993  95.6058 0003509 265.3773  94.6985 14.98337545169041
STARLINK-5327
1 55291U 23010Y   26040.50266842  .00001438  00000+0  12827-3 0  9991
2 55291  69.9994  95.6638 0003069 271.2007  88.8800 14.98329968169045
STARLINK-5325
1 55292U 23010Z   26040.47345303  .00000066  00000+0  13301-4 0  9993
2 55292  70.0032  95.5664 0002121 231.6488 128.4481 14.98320330169041
